start=new Date('2022-08-03T00:00:00.000Z').valueOf();
sats=[{"EPOCH":"2022-08-02T09:45:38.780640","LAUNCH_DATE":"2019-05-24","MEAN_ELEMENT_THEORY":"SGP4","OBJECT_NAME":"STARLINK-24","BSTAR":"0.00096324000000","MEAN_ANOMALY":"333.7031","GP_ID":"209426043","DECAY_DATE":null,"OBJECT_TYPE":"PAYLOAD","PERIAPSIS":"438.794","TIME_SYSTEM":"UTC","REF_FRAME":"TEME","APOAPSIS":"443.331","CENTER_NAME":"EARTH","OBJECT_ID":"2019-029D","COUNTRY_CODE":"US","SITE":"AFETR","SEMIMAJOR_AXIS":"6819.197","REV_AT_EPOCH":"17530","RA_OF_ASC_NODE":"253.4268","ELEMENT_SET_NO":"999","PERIOD":"93.403","MEAN_MOTION_DDOT":"0.0000000000000","FILE":"3527697","CLASSIFICATION_TYPE":"U","EPHEMERIS_TYPE":"0","TLE_LINE1":"1 44238U 19029D   22214.40669885  .00041113  00000-0  96324-3 0  9996","MEAN_MOTION":"15.41710663","INCLINATION":"53.0025","ECCENTRICITY":"0.00033270","TLE_LINE2":"2 44238  53.0025 253.4268 0003327  26.4141 333.7031 15.41710663175301","MEAN_MOTION_DOT":"0.00041113","ARG_OF_PERICENTER":"26.4141","RCS_SIZE":"LARGE","NORAD_CAT_ID":"44238"},{"REV_AT_EPOCH":"17601","PERIOD":"93.264","ELEMENT_SET_NO":"999","RA_OF_ASC_NODE":"248.3251","EPHEMERIS_TYPE":"0","CLASSIFICATION_TYPE":"U","FILE":"3527697","MEAN_MOTION_DDOT":"0.0000000000000","MEAN_MOTION":"15.44003481","TLE_LINE1":"1 44252U 19029T   22214.40567973  .00037744  00000-0  81993-3 0  9998","ECCENTRICITY":"0.00043350","INCLINATION":"52.9931","MEAN_MOTION_DOT":"0.00037744","TLE_LINE2":"2 44252  52.9931 248.3251 0004335  42.7509 317.3832 15.44003481176017","RCS_SIZE":"LARGE","ARG_OF_PERICENTER":"42.7509","NORAD_CAT_ID":"44252","OBJECT_NAME":"STARLINK-71","LAUNCH_DATE":"2019-05-24","MEAN_ELEMENT_THEORY":"SGP4","EPOCH":"2022-08-02T09:44:10.728672","MEAN_ANOMALY":"317.3832","BSTAR":"0.00081993000000","GP_ID":"209425794","DECAY_DATE":null,"TIME_SYSTEM":"UTC","PERIAPSIS":"431.357","OBJECT_TYPE":"PAYLOAD","APOAPSIS":"437.263","REF_FRAME":"TEME","COUNTRY_CODE":"US","OBJECT_ID":"2019-029T","CENTER_NAME":"EARTH","SEMIMAJOR_AXIS":"6812.445","SITE":"AFETR"},{"COUNTRY_CODE":"US","OBJECT_ID":"2019-074A","CENTER_NAME":"EARTH","SITE":"AFETR","SEMIMAJOR_AXIS":"6925.300","OBJECT_TYPE":"PAYLOAD","TIME_SYSTEM":"UTC","PERIAPSIS":"546.244","APOAPSIS":"548.085","REF_FRAME":"TEME","DECAY_DATE":null,"GP_ID":"209425329","LAUNCH_DATE":"2019-11-11","EPOCH":"2022-08-02T11:09:37.552608","MEAN_ELEMENT_THEORY":"SGP4","OBJECT_NAME":"STARLINK-1007","BSTAR":"-0.00011017000000","MEAN_ANOMALY":"276.4211","ARG_OF_PERICENTER":"83.6930","RCS_SIZE":"LARGE","NORAD_CAT_ID":"44713","ECCENTRICITY":"0.00013290","INCLINATION":"53.0574","TLE_LINE2":"2 44713  53.0574 330.8839 0001329  83.6930 276.4211 15.06415917150517","MEAN_MOTION_DOT":"-0.00001923","FILE":"3527697","MEAN_MOTION_DDOT":"0.0000000000000","EPHEMERIS_TYPE":"0","CLASSIFICATION_TYPE":"U","MEAN_MOTION":"15.06415917","TLE_LINE1":"1 44713U 19074A   22214.46501797 -.00001923  00000-0 -11017-3 0  9990","REV_AT_EPOCH":"15051","PERIOD":"95.591","ELEMENT_SET_NO":"999","RA_OF_ASC_NODE":"330.8839"},{"NORAD_CAT_ID":"44714","ARG_OF_PERICENTER":"80.8525","RCS_SIZE":"LARGE","TLE_LINE2":"2 44714  53.0560 330.6960 0001375  80.8525 279.2619 15.06398470150524","MEAN_MOTION_DOT":"-0.00000076","INCLINATION":"53.0560","ECCENTRICITY":"0.00013750","TLE_LINE1":"1 44714U 19074B   22214.51020307 -.00000076  00000-0  13772-4 0  9998","MEAN_MOTION":"15.06398470","MEAN_MOTION_DDOT":"0.0000000000000","FILE":"3527697","CLASSIFICATION_TYPE":"U","EPHEMERIS_TYPE":"0","ELEMENT_SET_NO":"999","RA_OF_ASC_NODE":"330.6960","PERIOD":"95.592","REV_AT_EPOCH":"15052","SITE":"AFETR","SEMIMAJOR_AXIS":"6925.353","CENTER_NAME":"EARTH","OBJECT_ID":"2019-074B","COUNTRY_CODE":"US","REF_FRAME":"TEME","APOAPSIS":"548.170","OBJECT_TYPE":"PAYLOAD","PERIAPSIS":"546.266","TIME_SYSTEM":"UTC","GP_ID":"209425581","DECAY_DATE":null,"BSTAR":"0.00001377200000","MEAN_ANOMALY":"279.2619","MEAN_ELEMENT_THEORY":"SGP4","LAUNCH_DATE":"2019-11-11","EPOCH":"2022-08-02T12:14:41.545248","OBJECT_NAME":"STARLINK-1008"},{"MEAN_MOTION":"15.06394397","TLE_LINE1":"1 44715U 19074C   22214.49915134  .00000284  00000-0  37931-4 0  9990","FILE":"3527697","MEAN_MOTION_DDOT":"0.0000000000000","EPHEMERIS_TYPE":"0","CLASSIFICATION_TYPE":"U","PERIOD":"95.592","RA_OF_ASC_NODE":"330.7521","ELEMENT_SET_NO":"999","REV_AT_EPOCH":"15051","NORAD_CAT_ID":"44715","ARG_OF_PERICENTER":"90.1816","RCS_SIZE":"LARGE","TLE_LINE2":"2 44715  53.0561 330.7521 0001273  90.1816 269.9319 15.06394397150510","MEAN_MOTION_DOT":"0.00000284","ECCENTRICITY":"0.00012730","INCLINATION":"53.0561","DECAY_DATE":null,"GP_ID":"209426331","BSTAR":"0.00003793100000","MEAN_ANOMALY":"269.9319","LAUNCH_DATE":"2019-11-11","MEAN_ELEMENT_THEORY":"SGP4","EPOCH":"2022-08-02T11:58:46.675776","OBJECT_NAME":"STARLINK-1009","SITE":"AFETR","SEMIMAJOR_AXIS":"6925.366","COUNTRY_CODE":"US","CENTER_NAME":"EARTH","OBJECT_ID":"2019-074C","APOAPSIS":"548.112","REF_FRAME":"TEME","OBJECT_TYPE":"PAYLOAD","TIME_SYSTEM":"UTC","PERIAPSIS":"546.349"},{"SEMIMAJOR_AXIS":"6925.347","SITE":"AFETR","COUNTRY_CODE":"US","CENTER_NAME":"EARTH","OBJECT_ID":"2019-074D","APOAPSIS":"548.121","REF_FRAME":"TEME","TIME_SYSTEM":"UTC","PERIAPSIS":"546.304","OBJECT_TYPE":"PAYLOAD","DECAY_DATE":null,"GP_ID":"209403059","MEAN_ANOMALY":"267.8459","BSTAR":"0.00003585800000","OBJECT_NAME":"STARLINK-1010","LAUNCH_DATE":"2019-11-11","MEAN_ELEMENT_THEORY":"SGP4","EPOCH":"2022-08-02T14:00:50.920416","NORAD_CAT_ID":"44716","RCS_SIZE":"LARGE","ARG_OF_PERICENTER":"92.2680","MEAN_MOTION_DOT":"0.00000253","TLE_LINE2":"2 44716  53.0556 330.3726 0001312  92.2680 267.8459 15.06400446150687","ECCENTRICITY":"0.00013120","INCLINATION":"53.0556","MEAN_MOTION":"15.06400446","TLE_LINE1":"1 44716U 19074D   22214.58392269  .00000253  00000-0  35858-4 0  9991","EPHEMERIS_TYPE":"0","CLASSIFICATION_TYPE":"U","FILE":"3527578","MEAN_MOTION_DDOT":"0.0000000000000","PERIOD":"95.592","RA_OF_ASC_NODE":"330.3726","ELEMENT_SET_NO":"999","REV_AT_EPOCH":"15068"},{"OBJECT_ID":"2019-074E","CENTER_NAME":"EARTH","COUNTRY_CODE":"US","SEMIMAJOR_AXIS":"6925.356","SITE":"AFETR","PERIAPSIS":"546.149","TIME_SYSTEM":"UTC","OBJECT_TYPE":"PAYLOAD","REF_FRAME":"TEME","APOAPSIS":"548.292","GP_ID":"209452795","DECAY_DATE":null,"OBJECT_NAME":"STARLINK-1011","MEAN_ELEMENT_THEORY":"SGP4","LAUNCH_DATE":"2019-11-11","EPOCH":"2022-08-02T20:20:21.271488","MEAN_ANOMALY":"278.1690","BSTAR":"0.00001942100000","RCS_SIZE":"LARGE","ARG_OF_PERICENTER":"81.9475","NORAD_CAT_ID":"44717","INCLINATION":"53.0558","ECCENTRICITY":"0.00015470","MEAN_MOTION_DOT":"0.00000008","TLE_LINE2":"2 44717  53.0558 349.1655 0001547  81.9475 278.1690 15.06397650150297","CLASSIFICATION_TYPE":"U","EPHEMERIS_TYPE":"0","MEAN_MOTION_DDOT":"0.0000000000000","FILE":"3527804","TLE_LINE1":"1 44717U 19074E   22214.84746842  .00000008  00000-0  19421-4 0  9997","MEAN_MOTION":"15.06397650","REV_AT_EPOCH":"15029","RA_OF_ASC_NODE":"349.1655","ELEMENT_SET_NO":"999","PERIOD":"95.592"},{"APOAPSIS":"548.056","REF_FRAME":"TEME","OBJECT_TYPE":"PAYLOAD","TIME_SYSTEM":"UTC","PERIAPSIS":"546.352","SITE":"AFETR","SEMIMAJOR_AXIS":"6925.339","COUNTRY_CODE":"US","CENTER_NAME":"EARTH","OBJECT_ID":"2019-074F","BSTAR":"0.00002170100000","MEAN_ANOMALY":"272.0332","LAUNCH_DATE":"2019-11-11","MEAN_ELEMENT_THEORY":"SGP4","EPOCH":"2022-08-02T11:42:50.472288","OBJECT_NAME":"STARLINK-1012","GP_ID":"209426081","DECAY_DATE":null,"TLE_LINE2":"2 44718  53.0553 330.8003 0001230  88.0797 272.0332 15.06403041150514","MEAN_MOTION_DOT":"0.00000042","ECCENTRICITY":"0.00012300","INCLINATION":"53.0553","NORAD_CAT_ID":"44718","ARG_OF_PERICENTER":"88.0797","RCS_SIZE":"LARGE","PERIOD":"95.592","ELEMENT_SET_NO":"999","RA_OF_ASC_NODE":"330.8003","REV_AT_EPOCH":"15051","MEAN_MOTION":"15.06403041","TLE_LINE1":"1 44718U 19074F   22214.48808417  .00000042  00000-0  21701-4 0  9997","FILE":"3527697","MEAN_MOTION_DDOT":"0.0000000000000","EPHEMERIS_TYPE":"0","CLASSIFICATION_TYPE":"U"},{"APOAPSIS":"548.205","REF_FRAME":"TEME","OBJECT_TYPE":"PAYLOAD","TIME_SYSTEM":"UTC","PERIAPSIS":"546.273","SITE":"AFETR","SEMIMAJOR_AXIS":"6925.374","COUNTRY_CODE":"US","CENTER_NAME":"EARTH","OBJECT_ID":"2019-074G","BSTAR":"0.00002295100000","MEAN_ANOMALY":"278.3596","LAUNCH_DATE":"2019-11-11","EPOCH":"2022-08-02T11:53:28.524192","MEAN_ELEMENT_THEORY":"SGP4","OBJECT_NAME":"STARLINK-1013","DECAY_DATE":null,"GP_ID":"209425832","TLE_LINE2":"2 44719  53.0565 330.7644 0001395  81.7551 278.3596 15.06391620151643","MEAN_MOTION_DOT":"0.00000060","ECCENTRICITY":"0.00013950","INCLINATION":"53.0565","NORAD_CAT_ID":"44719","ARG_OF_PERICENTER":"81.7551","RCS_SIZE":"LARGE","PERIOD":"95.593","RA_OF_ASC_NODE":"330.7644","ELEMENT_SET_NO":"999","REV_AT_EPOCH":"15164","MEAN_MOTION":"15.06391620","TLE_LINE1":"1 44719U 19074G   22214.49546903  .00000060  00000-0  22951-4 0  9996","FILE":"3527697","MEAN_MOTION_DDOT":"0.0000000000000","EPHEMERIS_TYPE":"0","CLASSIFICATION_TYPE":"U"},{"PERIOD":"95.592","RA_OF_ASC_NODE":"330.3640","ELEMENT_SET_NO":"999","REV_AT_EPOCH":"15053","MEAN_MOTION":"15.06403233","TLE_LINE1":"1 44720U 19074H   22214.57928507  .00000645  00000-0  62151-4 0  9996","EPHEMERIS_TYPE":"0","CLASSIFICATION_TYPE":"U","FILE":"3527697","MEAN_MOTION_DDOT":"0.0000000000000","MEAN_MOTION_DOT":"0.00000645","TLE_LINE2":"2 44720  53.0561 330.3640 0001242  76.1093 284.0034 15.06403233150535","ECCENTRICITY":"0.00012420","INCLINATION":"53.0561","NORAD_CAT_ID":"44720","RCS_SIZE":"LARGE","ARG_OF_PERICENTER":"76.1093","MEAN_ANOMALY":"284.0034","BSTAR":"0.00006215100000","OBJECT_NAME":"STARLINK-1014","EPOCH":"2022-08-02T13:54:10.230048","LAUNCH_DATE":"2019-11-11","MEAN_ELEMENT_THEORY":"SGP4","GP_ID":"209424581","DECAY_DATE":null,"APOAPSIS":"548.064","REF_FRAME":"TEME","TIME_SYSTEM":"UTC","PERIAPSIS":"546.344","OBJECT_TYPE":"PAYLOAD","SEMIMAJOR_AXIS":"6925.339","SITE":"AFETR","COUNTRY_CODE":"US","CENTER_NAME":"EARTH","OBJECT_ID":"2019-074H"}];
